{"type": "FeatureCollection", "features": [ {"type": "Feature", "properties": {"norad_id": 30048, "name": "FENGYUN 1C DEB", "group": "fengyun-1c-debris", "lat": 61.51224343756101, "lon": -158.0257506250948, "alt_km": 1090.3216215134607, "timestamp": "2025-12-18T23:35:49.333724+00:00", "meta": {"OBJECT_NAME": "FENGYUN 1C DEB", "OBJECT_ID": "1999-025NZ", "EPOCH": "2025-12-18T14:40:15.337632", "MEAN_MOTION": 13.7989654, "ECCENTRICITY": 0.01862972, "INCLINATION": 98.6663, "RA_OF_ASC_NODE": 217.9555, "ARG_OF_PERICENTER": 228.9991, "MEAN_ANOMALY": 147.7974, "EPHEMERIS_TYPE": 0, "CLASSIFICATION_TYPE": "U", "NORAD_CAT_ID": 30048, "ELEMENT_SET_NO": 999, "REV_AT_EPOCH": 95207, "BSTAR": 0.00018989136, "MEAN_MOTION_DOT": 1.84e-06, "MEAN_MOTION_DDOT": 0}, "tle": {"line1": "1 30048U 99025NZ  25352.61128863  .00000184  00000+0  18989-3 0  9992", "line2": "2 30048  98.6663 217.9555 0186297 228.9991 147.7974 13.79896540952076"}}, "geometry": {"type": "Point", "coordinates": [-158.0257506250948, 61.51224343756101]}}, {"type": "Feature", "properties": {"norad_id": 30050, "name": "FENGYUN 1C DEB", "group": "fengyun-1c-debris", "lat": 15.32617514750433, "lon": 133.3541658836101, "alt_km": 1057.0538508456484, "timestamp": "2025-12-18T23:35:49.333734+00:00", "meta": {"OBJECT_NAME": "FENGYUN 1C DEB", "OBJECT_ID": "1999-025PB", "EPOCH": "2025-12-18T03:48:27.595872", "MEAN_MOTION": 13.85065313, "ECCENTRICITY": 0.01713766, "INCLINATION": 96.8183, "RA_OF_ASC_NODE": 310.8746, "ARG_OF_PERICENTER": 14.8175, "MEAN_ANOMALY": 359.6181, "EPHEMERIS_TYPE": 0, "CLASSIFICATION_TYPE": "U", "NORAD_CAT_ID": 30050, "ELEMENT_SET_NO": 999, "REV_AT_EPOCH": 95277, "BSTAR": 0.001065492, "MEAN_MOTION_DOT": 1.326e-05, "MEAN_MOTION_DDOT": 0}, "tle": {"line1": "1 30050U 99025PB  25352.15865273  .00001326  00000+0  10655-2 0  9997", "line2": "2 30050  96.8183 310.8746 0171376  14.8175 359.6181 13.85065313952773"}}, "geometry": {"type": "Point", "coordinates": [133.3541658836101, 15.32617514750433]}}, {"type": "Feature", "properties": {"norad_id": 30052, "name": "FENGYUN 1C DEB", "group": "fengyun-1c-debris", "lat": 12.377941518338556, "lon": -159.53231218664953, "alt_km": 845.5843635625615, "timestamp": "2025-12-18T23:35:49.333744+00:00", "meta": {"OBJECT_NAME": "FENGYUN 1C DEB", "OBJECT_ID": "1999-025PD", "EPOCH": "2025-12-18T14:37:04.840320", "MEAN_MOTION": 13.72967165, "ECCENTRICITY": 0.0289179, "INCLINATION": 99.2987, "RA_OF_ASC_NODE": 18.0434, "ARG_OF_PERICENTER": 216.8735, "MEAN_ANOMALY": 264.7117, "EPHEMERIS_TYPE": 0, "CLASSIFICATION_TYPE": "U", "NORAD_CAT_ID": 30052, "ELEMENT_SET_NO": 999, "REV_AT_EPOCH": 94635, "BSTAR": 0.00039211686, "MEAN_MOTION_DOT": 4.44e-06, "MEAN_MOTION_DDOT": 0}, "tle": {"line1": "1 30052U 99025PD  25352.60908380  .00000444  00000+0  39212-3 0  9997", "line2": "2 30052  99.2987  18.0434 0289179 216.8735 264.7117 13.72967165946356"}}, "geometry": {"type": "Point", "coordinates": [-159.53231218664953, 12.377941518338556]}}, {"type": "Feature", "properties": {"norad_id": 30053, "name": "FENGYUN 1C DEB", "group": "fengyun-1c-debris", "lat": 55.55526527452647, "lon": -1.6310828183687147, "alt_km": 1138.3613517316016, "timestamp": "2025-12-18T23:35:49.333755+00:00", "meta": {"OBJECT_NAME": "FENGYUN 1C DEB", "OBJECT_ID": "1999-025PE", "EPOCH": "2025-12-18T11:12:05.509152", "MEAN_MOTION": 13.94169444, "ECCENTRICITY": 0.03314442, "INCLINATION": 98.5755, "RA_OF_ASC_NODE": 165.1791, "ARG_OF_PERICENTER": 322.4706, "MEAN_ANOMALY": 88.9986, "EPHEMERIS_TYPE": 0, "CLASSIFICATION_TYPE": "U", "NORAD_CAT_ID": 30053, "ELEMENT_SET_NO": 999, "REV_AT_EPOCH": 95066, "BSTAR": 0.0012282986, "MEAN_MOTION_DOT": 2.528e-05, "MEAN_MOTION_DDOT": 0}, "tle": {"line1": "1 30053U 99025PE  25352.46673043  .00002528  00000+0  12283-2 0  9990", "line2": "2 30053  98.5755 165.1791 0331444 322.4706  88.9986 13.94169444950664"}}, "geometry": {"type": "Point", "coordinates": [-1.6310828183687147, 55.55526527452647]}}, {"type": "Feature", "properties": {"norad_id": 30054, "name": "FENGYUN 1C DEB", "group": "fengyun-1c-debris", "lat": 37.30759570124289, "lon": 17.831375417131323, "alt_km": 860.5571878328137, "timestamp": "2025-12-18T23:35:49.333766+00:00", "meta": {"OBJECT_NAME": "FENGYUN 1C DEB", "OBJECT_ID": "1999-025PF", "EPOCH": "2025-12-18T13:38:42.961920", "MEAN_MOTION": 13.69872107, "ECCENTRICITY": 0.02756083, "INCLINATION": 99.3711, "RA_OF_ASC_NODE": 24.656, "ARG_OF_PERICENTER": 350.1031, "MEAN_ANOMALY": 161.7139, "EPHEMERIS_TYPE": 0, "CLASSIFICATION_TYPE": "U", "NORAD_CAT_ID": 30054, "ELEMENT_SET_NO": 999, "REV_AT_EPOCH": 94428, "BSTAR": 0.00046272241, "MEAN_MOTION_DOT": 4.85e-06, "MEAN_MOTION_DDOT": 0}, "tle": {"line1": "1 30054U 99025PF  25352.56855280  .00000485  00000+0  46272-3 0  9993", "line2": "2 30054  99.3711  24.6560 0275608 350.1031 161.7139 13.69872107944287"}}, "geometry": {"type": "Point", "coordinates": [17.831375417131323, 37.30759570124289]}}, {"type": "Feature", "properties": {"norad_id": 30056, "name": "FENGYUN 1C DEB", "group": "fengyun-1c-debris", "lat": 66.43771426955486, "lon": 158.22670542686296, "alt_km": 1104.0055127581472, "timestamp": "2025-12-18T23:35:49.333776+00:00", "meta": {"OBJECT_NAME": "FENGYUN 1C DEB", "OBJECT_ID": "1999-025PH", "EPOCH": "2025-12-18T11:00:58.279968", "MEAN_MOTION": 13.74020635, "ECCENTRICITY": 0.02993113, "INCLINATION": 98.3222, "RA_OF_ASC_NODE": 177.38, "ARG_OF_PERICENTER": 195.3889, "MEAN_ANOMALY": 163.8009, "EPHEMERIS_TYPE": 0, "CLASSIFICATION_TYPE": "U", "NORAD_CAT_ID": 30056, "ELEMENT_SET_NO": 999, "REV_AT_EPOCH": 94054, "BSTAR": 0.0020000682, "MEAN_MOTION_DOT": 2.561e-05, "MEAN_MOTION_DDOT": 0}, "tle": {"line1": "1 30056U 99025PH  25352.45900787  .00002561  00000+0  20001-2 0  9994", "line2": "2 30056  98.3222 177.3800 0299311 195.3889 163.8009 13.74020635940546"}}, "geometry": {"type": "Point", "coordinates": [158.22670542686296, 66.43771426955486]}}, {"type": "Feature", "properties": {"norad_id": 30057, "name": "FENGYUN 1C DEB", "group": "fengyun-1c-debris", "lat": 0.5748229730509178, "lon": -118.78569654573906, "alt_km": 902.63995118199, "timestamp": "2025-12-18T23:35:49.333787+00:00", "meta": {"OBJECT_NAME": "FENGYUN 1C DEB", "OBJECT_ID": "1999-025PJ", "EPOCH": "2025-12-18T10:26:19.631616", "MEAN_MOTION": 13.57136057, "ECCENTRICITY": 0.02922503, "INCLINATION": 98.8833, "RA_OF_ASC_NODE": 60.6285, "ARG_OF_PERICENTER": 131.829, "MEAN_ANOMALY": 247.7712, "EPHEMERIS_TYPE": 0, "CLASSIFICATION_TYPE": "U", "NORAD_CAT_ID": 30057, "ELEMENT_SET_NO": 999, "REV_AT_EPOCH": 93313, "BSTAR": 0.0010064409, "MEAN_MOTION_DOT": 9.1e-06, "MEAN_MOTION_DDOT": 0}, "tle": {"line1": "1 30057U 99025PJ  25352.43494944  .00000910  00000+0  10064-2 0  9990", "line2": "2 30057  98.8833  60.6285 0292250 131.8290 247.7712 13.57136057933134"}}, "geometry": {"type": "Point", "coordinates": [-118.78569654573906, 0.5748229730509178]}}, {"type": "Feature", "properties": {"norad_id": 30058, "name": "FENGYUN 1C DEB", "group": "fengyun-1c-debris", "lat": 39.26310238150885, "lon": -10.968898887586708, "alt_km": 1096.3838290047324, "timestamp": "2025-12-18T23:35:49.333797+00:00", "meta": {"OBJECT_NAME": "FENGYUN 1C DEB", "OBJECT_ID": "1999-025PK", "EPOCH": "2025-12-18T11:40:11.059104", "MEAN_MOTION": 13.48243523, "ECCENTRICITY": 0.03157098, "INCLINATION": 99.6499, "RA_OF_ASC_NODE": 356.5445, "ARG_OF_PERICENTER": 138.1179, "MEAN_ANOMALY": 14.6021, "EPHEMERIS_TYPE": 0, "CLASSIFICATION_TYPE": "U", "NORAD_CAT_ID": 30058, "ELEMENT_SET_NO": 999, "REV_AT_EPOCH": 92925, "BSTAR": 0.00057056076, "MEAN_MOTION_DOT": 4.39e-06, "MEAN_MOTION_DDOT": 0}, "tle": {"line1": "1 30058U 99025PK  25352.48623911  .00000439  00000+0  57056-3 0  9993", "line2": "2 30058  99.6499 356.5445 0315709 138.1179  14.6021 13.48243523929257"}}, "geometry": {"type": "Point", "coordinates": [-10.968898887586708, 39.26310238150885]}}, {"type": "Feature", "properties": {"norad_id": 30059, "name": "FENGYUN 1C DEB", "group": "fengyun-1c-debris", "lat": 45.80904975754131, "lon": 176.7220700005751, "alt_km": 1301.2208211421703, "timestamp": "2025-12-18T23:35:49.333808+00:00", "meta": {"OBJECT_NAME": "FENGYUN 1C DEB", "OBJECT_ID": "1999-025PL", "EPOCH": "2025-12-17T22:14:34.193760", "MEAN_MOTION": 13.45497688, "ECCENTRICITY": 0.03265301, "INCLINATION": 98.8226, "RA_OF_ASC_NODE": 346.5989, "ARG_OF_PERICENTER": 289.497, "MEAN_ANOMALY": 131.199, "EPHEMERIS_TYPE": 0, "CLASSIFICATION_TYPE": "U", "NORAD_CAT_ID": 30059, "ELEMENT_SET_NO": 999, "REV_AT_EPOCH": 92867, "BSTAR": 0.00032462838, "MEAN_MOTION_DOT": 2.26e-06, "MEAN_MOTION_DDOT": 0}, "tle": {"line1": "1 30059U 99025PL  25351.92678465  .00000226  00000+0  32463-3 0  9995", "line2": "2 30059  98.8226 346.5989 0326530 289.4970 131.1990 13.45497688928677"}}, "geometry": {"type": "Point", "coordinates": [176.7220700005751, 45.80904975754131]}}, {"type": "Feature", "properties": {"norad_id": 30060, "name": "FENGYUN 1C DEB", "group": "fengyun-1c-debris", "lat": -26.043504096362955, "lon": -136.17602136720882, "alt_km": 1057.74816077606, "timestamp": "2025-12-18T23:35:49.333818+00:00", "meta": {"OBJECT_NAME": "FENGYUN 1C DEB", "OBJECT_ID": "1999-025PM", "EPOCH": "2025-12-18T15:04:53.682240", "MEAN_MOTION": 13.43778282, "ECCENTRICITY": 0.03453507, "INCLINATION": 99.3149, "RA_OF_ASC_NODE": 218.8949, "ARG_OF_PERICENTER": 56.9404, "MEAN_ANOMALY": 5.1056, "EPHEMERIS_TYPE": 0, "CLASSIFICATION_TYPE": "U", "NORAD_CAT_ID": 30060, "ELEMENT_SET_NO": 999, "REV_AT_EPOCH": 92322, "BSTAR": 0.0021284504, "MEAN_MOTION_DOT": 1.716e-05, "MEAN_MOTION_DDOT": 0}, "tle": {"line1": "1 30060U 99025PM  25352.62839910  .00001716  00000+0  21285-2 0  9993", "line2": "2 30060  99.3149 218.8949 0345350  56.9404   5.1056 13.43778282923225"}}, "geometry": {"type": "Point", "coordinates": [-136.17602136720882, -26.043504096362955]}}]}